NORAD_CAT_ID,OBJECT_NAME,OBJECT_TYPE,EPOCH,MEAN_MOTION,ECCENTRICITY,INCLINATION,RA_OF_ASC_NODE,ARG_OF_PERICENTER,MEAN_ANOMALY,BSTAR,MEAN_MOTION_DOT,MEAN_MOTION_DDOT,TLE_LINE0,TLE_LINE1,TLE_LINE2,SEMIMAJOR_AXIS,PERIOD,APOGEE,PERIGEE,DECAYED
51966.0,STARLINK-3699,PAYLOAD,2023-01-13 15:37:12,15.08837085,0.0002785,53.2172,156.3453,35.2794,324.8382,1.2094e-05,-9.6e-07,0.0,0 STARLINK-3699,1 51966U 22025L   23013.65083615 -.00000096  00000-0  12094-4 0  9997,2 51966  53.2172 156.3453 0002785  35.2794 324.8382 15.08837085 47431,6917.889,95.438,541.681,537.828,0.0
51966.0,STARLINK-3699,PAYLOAD,2023-01-14 02:44:53,15.0883955,0.0002747,53.2164,154.2636,40.6869,319.4328,0.00018929,2.725e-05,0.0,0 STARLINK-3699,1 51966U 22025L   23014.11451186  .00002725  00000-0  18929-3 0  9993,2 51966  53.2164 154.2636 0002747  40.6869 319.4328 15.08839550 48590,6917.882,95.438,541.6469999999999,537.846,0.0
51966.0,STARLINK-3699,PAYLOAD,2023-01-15 02:35:41,15.08841217,0.0002717,53.2153,149.804,43.8798,316.241,0.00019484,2.814e-05,0.0,0 STARLINK-3699,1 51966U 22025L   23015.10811790  .00002814  00000-0  19484-3 0  9990,2 51966  53.2153 149.8040 0002717  43.8798 316.2410 15.08841217 48747,6917.877,95.437,541.621,537.862,0.0
51966.0,STARLINK-3699,PAYLOAD,2023-01-15 13:43:23,15.08838666,0.0002698,53.2156,147.7216,44.2736,315.8472,0.00015213,2.134e-05,0.0,0 STARLINK-3699,1 51966U 22025L   23015.57180369  .00002134  00000-0  15213-3 0  9993,2 51966  53.2156 147.7216 0002698  44.2736 315.8472 15.08838666 48812,6917.884,95.438,541.616,537.883,0.0
51966.0,STARLINK-3699,PAYLOAD,2023-01-15 15:18:46,15.08843638,0.0002521,53.2156,147.424,45.9436,314.1764,0.00020523,2.98e-05,0.0,0 STARLINK-3699,1 51966U 22025L   23015.63803916  .00002980  00000-0  20523-3 0  9999,2 51966  53.2156 147.4240 0002521  45.9436 314.1764 15.08843638 47737,6917.869000000001,95.437,541.4780000000001,537.99,0.0
51966.0,STARLINK-3699,PAYLOAD,2023-01-16 13:34:10,15.08841525,0.0002481999999999,53.215,143.2605,51.4941,308.6274,0.00016111,2.277e-05,0.0,0 STARLINK-3699,1 51966U 22025L   23016.56540221  .00002277  00000-0  16111-3 0  9996,2 51966  53.2150 143.2605 0002482  51.4941 308.6274 15.08841525 47871,6917.876,95.437,541.4580000000001,538.024,0.0
51966.0,STARLINK-3699,PAYLOAD,2023-01-16 15:09:33,15.08847678,0.0002331,53.2147,142.9631,52.1829,307.9374,0.00028195,4.203e-05,0.0,0 STARLINK-3699,1 51966U 22025L   23016.63164036  .00004203  00000-0  28195-3 0  9996,2 51966  53.2147 142.9631 0002331  52.1829 307.9374 15.08847678 48978,6917.857,95.437,541.3340000000001,538.109,0.0
51966.0,STARLINK-3699,PAYLOAD,2023-01-17 03:52:39,15.0882008,0.0002339,53.2156,140.5871,62.9949,297.1282,-1.5572e-05,-5.36e-06,0.0,0 STARLINK-3699,1 51966U 22025L   23017.16157406 -.00000536  00000-0 -15572-4 0  9991,2 51966  53.2156 140.5871 0002339  62.9949 297.1282 15.08820080 49054,6917.941,95.439,541.424,538.188,0.0
51966.0,STARLINK-3699,PAYLOAD,2023-01-17 15:00:22,15.08828496,0.0002268,53.2153,138.5057,58.1859,301.9353,0.00010226,1.339e-05,0.0,0 STARLINK-3699,1 51966U 22025L   23017.62525535  .00001339  00000-0  10226-3 0  9994,2 51966  53.2153 138.5057 0002268  58.1859 301.9353 15.08828496 48031,6917.916,95.438,541.35,538.212,0.0
51966.0,STARLINK-3699,PAYLOAD,2023-01-18 03:43:26,15.08844036,0.0002085999999999,53.2152,136.1261,72.4953,287.6267,0.00021395,3.119e-05,0.0,0 STARLINK-3699,1 51966U 22025L   23018.15517136  .00003119  00000-0  21395-3 0  9998,2 51966  53.2152 136.1261 0002086  72.4953 287.6267 15.08844036 49205,6917.868,95.437,541.1759999999999,538.29,0.0
51966.0,STARLINK-3699,PAYLOAD,2023-01-18 14:51:07,15.08873227,0.0002096,53.2155,134.0436,56.6222,303.497,0.00077025,0.00012003,0.0,0 STARLINK-3699,1 51966U 22025L   23018.61883881  .00012003  00000-0  77025-3 0  9995,2 51966  53.2155 134.0436 0002096  56.6222 303.4970 15.08873227 48181,6917.779,95.435,541.094,538.194,0.0
51966.0,STARLINK-3699,PAYLOAD,2023-01-19 06:45:00,15.0883095,0.0001996999999999,53.2154,131.0707,76.0836,284.0378,-3.6273e-05,-8.65e-06,0.0,0 STARLINK-3699,1 51966U 22025L   23019.28125107 -.00000865  00000-0 -36273-4 0  9995,2 51966  53.2154 131.0707 0001997  76.0836 284.0378 15.08830950 49378,6917.908,95.438,541.155,538.3919999999999,0.0
51966.0,STARLINK-3699,PAYLOAD,2023-01-19 09:55:45,15.0883851,0.0002044999999999,53.215,130.476,77.2103,282.9117,-0.00010343,-1.934e-05,0.0,0 STARLINK-3699,1 51966U 22025L   23019.41372683 -.00001934  00000-0 -10343-3 0  9990,2 51966  53.2150 130.4760 0002045  77.2103 282.9117 15.08838510 48301,6917.885,95.438,541.165,538.335,0.0
51966.0,STARLINK-3699,PAYLOAD,2023-01-19 14:41:54,15.0885907,0.0001909999999999,53.2152,129.5836,76.5927,283.5278,0.00069932,0.00010865,0.0,0 STARLINK-3699,1 51966U 22025L   23019.61243930  .00010865  00000-0  69932-3 0  9993,2 51966  53.2152 129.5836 0001910  76.5927 283.5278 15.08859070 49425,6917.821999999999,95.436,541.008,538.366,0.0
51966.0,STARLINK-3699,PAYLOAD,2023-01-20 01:49:37,15.08842805,0.0002056999999999,53.2151,127.5029,96.3433,263.7793,0.0018492,0.00029267,0.0,0 STARLINK-3699,1 51966U 22025L   23020.07612608  .00029267  00000-0  18492-2 0  9997,2 51966  53.2151 127.5029 0002057  96.3433 263.7793 15.08842805 49498,6917.871999999999,95.437,541.16,538.314,0.0
51966.0,STARLINK-3699,PAYLOAD,2023-01-20 11:21:56,15.088494,0.0001835,53.2151,125.7175,91.8646,268.2556,0.001872,0.00029638,0.0,0 STARLINK-3699,1 51966U 22025L   23020.47356670  .00029638  00000-0  18720-2 0  9991,2 51966  53.2151 125.7175 0001835  91.8646 268.2556 15.08849400 49551,6917.852,95.437,540.986,538.447,0.0
51966.0,STARLINK-3699,PAYLOAD,2023-01-21 06:26:34,15.08826087,0.0001363,53.2153,122.1495,92.1881,267.9267,0.00048407,7.422e-05,0.0,0 STARLINK-3699,1 51966U 22025L   23021.26845279  .00007422  00000-0  48407-3 0  9990,2 51966  53.2153 122.1495 0001363  92.1881 267.9267 15.08826087 49674,6917.923000000001,95.438,540.731,538.845,0.0
51966.0,STARLINK-3699,PAYLOAD,2023-01-21 12:48:07,15.08836125,0.0001379,53.2151,120.9604,87.6058,272.5092,0.0021894,0.00034725,0.0,0 STARLINK-3699,1 51966U 22025L   23021.53341751  .00034725  00000-0  21894-2 0  9992,2 51966  53.2151 120.9604 0001379  87.6058 272.5092 15.08836125 49719,6917.892,95.438,540.711,538.803,0.0
51966.0,STARLINK-3699,PAYLOAD,2023-01-22 12:38:53,15.08876931,0.0001486999999999,53.215,116.4995,81.4521,278.6639,0.0018917,0.00029977,0.0,0 STARLINK-3699,1 51966U 22025L   23022.52701329  .00029977  00000-0  18917-2 0  9998,2 51966  53.2150 116.4995 0001487  81.4521 278.6639 15.08876931 49867,6917.768,95.435,540.661,538.604,0.0
51966.0,STARLINK-3699,PAYLOAD,2023-01-23 06:08:08,15.08860327,0.0001795,53.2144,113.2295,70.54,289.5786,0.0012567,0.0001978,0.0,0 STARLINK-3699,1 51966U 22025L   23023.25565319  .00019780  00000-0  12567-2 0  9992,2 51966  53.2144 113.2295 0001795  70.5400 289.5786 15.08860327 49973,6917.818,95.436,540.925,538.442,0.0
51966.0,STARLINK-3699,PAYLOAD,2023-01-23 12:29:40,15.08841959,0.0001353,53.2145,112.0401,90.2996,269.8151,0.0013455,0.00021192,0.0,0 STARLINK-3699,1 51966U 22025L   23023.52061266  .00021192  00000-0  13455-2 0  9991,2 51966  53.2145 112.0401 0001353  90.2996 269.8151 15.08841959 50013,6917.874,95.437,540.675,538.803,0.0
51966.0,STARLINK-3699,PAYLOAD,2023-01-24 05:58:55,15.08834858,0.0002008999999999,53.2149,108.7668,90.2012,269.921,0.0007438,0.00011568,0.0,0 STARLINK-3699,1 51966U 22025L   23024.24925798  .00011568  00000-0  74380-3 0  9991,2 51966  53.2149 108.7668 0002009  90.2012 269.9210 15.08834858 50121,6917.896,95.438,541.151,538.371,0.0
51966.0,STARLINK-3699,PAYLOAD,2023-01-25 05:49:43,15.08840141,0.000126,53.2146,104.306,119.0928,241.0191,0.00091204,0.00014257,0.0,0 STARLINK-3699,1 51966U 22025L   23025.24286150  .00014257  00000-0  91204-3 0  9996,2 51966  53.2146 104.3060 0001260 119.0928 241.0191 15.08840141 50277,6917.88,95.438,540.617,538.873,0.0
51966.0,STARLINK-3699,PAYLOAD,2023-01-25 12:11:15,15.08843183,0.0001145,53.2143,103.1178,108.0752,252.0365,0.00087483,0.00013664,0.0,0 STARLINK-3699,1 51966U 22025L   23025.50782181  .00013664  00000-0  87483-3 0  9995,2 51966  53.2143 103.1178 0001145 108.0752 252.0365 15.08843183 49223,6917.871,95.437,540.528,538.944,0.0
51966.0,STARLINK-3699,PAYLOAD,2023-01-26 08:51:16,15.08846982,0.0001125999999999,53.2136,99.2533,113.9908,246.1202,0.00030243,4.53e-05,0.0,0 STARLINK-3699,1 51966U 22025L   23026.36893892  .00004530  00000-0  30243-3 0  9996,2 51966  53.2136  99.2533 0001126 113.9908 246.1202 15.08846982 50442,6917.859,95.437,540.503,538.945,0.0
51966.0,STARLINK-3699,PAYLOAD,2023-01-26 12:02:02,15.08855223,0.0001092,53.2141,98.658,104.6175,255.4938,0.00054318,8.371e-05,0.0,0 STARLINK-3699,1 51966U 22025L   23026.50141695  .00008371  00000-0  54318-3 0  9995,2 51966  53.2141  98.6580 0001092 104.6175 255.4938 15.08855223 49375,6917.834,95.437,540.4540000000001,538.943,0.0
51966.0,STARLINK-3699,PAYLOAD,2023-01-27 11:52:49,15.08843651,0.000153,53.2144,94.195,96.9854,263.1312,6.6408e-05,7.69e-06,0.0,0 STARLINK-3699,1 51966U 22025L   23027.49501802  .00000769  00000-0  66408-4 0  9991,2 51966  53.2144  94.1950 0001530  96.9854 263.1312 15.08843651 50617,6917.869000000001,95.437,540.793,538.6759999999999,0.0
51966.0,STARLINK-3699,PAYLOAD,2023-01-28 05:22:04,15.0883836,0.000151,53.2161,90.9262,90.2042,269.9123,3.1101e-05,2.07e-06,0.0,0 STARLINK-3699,1 51966U 22025L   23028.22366237  .00000207  00000-0  31101-4 0  9993,2 51966  53.2161  90.9262 0001510  90.2042 269.9123 15.08838360 50727,6917.885,95.438,540.795,538.706,0.0
51966.0,STARLINK-3699,PAYLOAD,2023-01-28 11:43:36,15.0884191,0.0001468,53.215,89.7351,82.5179,277.598,9.4392e-05,1.215e-05,0.0,0 STARLINK-3699,1 51966U 22025L   23028.48862153  .00001215  00000-0  94392-4 0  9990,2 51966  53.2150  89.7351 0001468  82.5179 277.5980 15.08841910 49670,6917.875,95.437,540.755,538.724,0.0
